{"type": "FeatureCollection", "features": [ {"type": "Feature", "properties": {"norad_id": 30160, "name": "FENGYUN 1C DEB", "group": "fengyun-1c-debris", "lat": -10.211367912736643, "lon": -50.15985096965428, "alt_km": 1143.6930127150326, "timestamp": "2025-12-27T08:36:18.656766+00:00", "meta": {"OBJECT_NAME": "FENGYUN 1C DEB", "OBJECT_ID": "1999-025TR", "EPOCH": "2025-12-27T03:22:28.838784", "MEAN_MOTION": 13.42916303, "ECCENTRICITY": 0.0343585, "INCLINATION": 98.8876, "RA_OF_ASC_NODE": 308.0325, "ARG_OF_PERICENTER": 91.495, "MEAN_ANOMALY": 289.0923, "EPHEMERIS_TYPE": 0, "CLASSIFICATION_TYPE": "U", "NORAD_CAT_ID": 30160, "ELEMENT_SET_NO": 999, "REV_AT_EPOCH": 92607, "BSTAR": 0.0014485, "MEAN_MOTION_DOT": 1.138e-05, "MEAN_MOTION_DDOT": 0}, "tle": {"line1": "1 30160U 99025TR  25361.14061156  .00001138  00000+0  14485-2 0  9992", "line2": "2 30160  98.8876 308.0325 0343585  91.4950 289.0923 13.42916303926074"}}, "geometry": {"type": "Point", "coordinates": [-50.15985096965428, -10.211367912736643]}}, {"type": "Feature", "properties": {"norad_id": 30161, "name": "FENGYUN 1C DEB", "group": "fengyun-1c-debris", "lat": -79.0147406873858, "lon": 62.50953387059124, "alt_km": 920.9627547830669, "timestamp": "2025-12-27T08:36:18.656776+00:00", "meta": {"OBJECT_NAME": "FENGYUN 1C DEB", "OBJECT_ID": "1999-025TS", "EPOCH": "2025-12-26T22:39:31.289760", "MEAN_MOTION": 13.49758152, "ECCENTRICITY": 0.0327617, "INCLINATION": 100.5071, "RA_OF_ASC_NODE": 349.1263, "ARG_OF_PERICENTER": 223.5452, "MEAN_ANOMALY": 194.003, "EPHEMERIS_TYPE": 0, "CLASSIFICATION_TYPE": "U", "NORAD_CAT_ID": 30161, "ELEMENT_SET_NO": 999, "REV_AT_EPOCH": 92751, "BSTAR": 0.0015591, "MEAN_MOTION_DOT": 1.327e-05, "MEAN_MOTION_DDOT": 0}, "tle": {"line1": "1 30161U 99025TS  25360.94411215  .00001327  00000+0  15591-2 0  9994", "line2": "2 30161 100.5071 349.1263 0327617 223.5452 194.0030 13.49758152927510"}}, "geometry": {"type": "Point", "coordinates": [62.50953387059124, -79.0147406873858]}}, {"type": "Feature", "properties": {"norad_id": 30162, "name": "FENGYUN 1C DEB", "group": "fengyun-1c-debris", "lat": -76.6096657778753, "lon": -167.78040676198864, "alt_km": 918.5125905651739, "timestamp": "2025-12-27T08:36:18.656786+00:00", "meta": {"OBJECT_NAME": "FENGYUN 1C DEB", "OBJECT_ID": "1999-025TT", "EPOCH": "2025-12-27T03:51:40.947840", "MEAN_MOTION": 13.53464543, "ECCENTRICITY": 0.0314348, "INCLINATION": 99.4876, "RA_OF_ASC_NODE": 56.6532, "ARG_OF_PERICENTER": 313.0345, "MEAN_ANOMALY": 67.6681, "EPHEMERIS_TYPE": 0, "CLASSIFICATION_TYPE": "U", "NORAD_CAT_ID": 30162, "ELEMENT_SET_NO": 999, "REV_AT_EPOCH": 92856, "BSTAR": 0.0029403, "MEAN_MOTION_DOT": 2.659e-05, "MEAN_MOTION_DDOT": 0}, "tle": {"line1": "1 30162U 99025TT  25361.16089060  .00002659  00000+0  29403-2 0  9995", "line2": "2 30162  99.4876  56.6532 0314348 313.0345  67.6681 13.53464543928568"}}, "geometry": {"type": "Point", "coordinates": [-167.78040676198864, -76.6096657778753]}}, {"type": "Feature", "properties": {"norad_id": 30163, "name": "FENGYUN 1C DEB", "group": "fengyun-1c-debris", "lat": -47.32829896940112, "lon": -75.16367870958327, "alt_km": 880.1129517123736, "timestamp": "2025-12-27T08:36:18.656797+00:00", "meta": {"OBJECT_NAME": "FENGYUN 1C DEB", "OBJECT_ID": "1999-025TU", "EPOCH": "2025-12-25T18:36:18.061920", "MEAN_MOTION": 13.38821668, "ECCENTRICITY": 0.03741252, "INCLINATION": 98.7014, "RA_OF_ASC_NODE": 113.0377, "ARG_OF_PERICENTER": 199.8281, "MEAN_ANOMALY": 318.576, "EPHEMERIS_TYPE": 0, "CLASSIFICATION_TYPE": "U", "NORAD_CAT_ID": 30163, "ELEMENT_SET_NO": 999, "REV_AT_EPOCH": 92119, "BSTAR": 0.0020615055, "MEAN_MOTION_DOT": 1.619e-05, "MEAN_MOTION_DDOT": 0}, "tle": {"line1": "1 30163U 99025TU  25359.77520905  .00001619  00000+0  20615-2 0  9999", "line2": "2 30163  98.7014 113.0377 0374125 199.8281 318.5760 13.38821668921194"}}, "geometry": {"type": "Point", "coordinates": [-75.16367870958327, -47.32829896940112]}}, {"type": "Feature", "properties": {"norad_id": 30167, "name": "FENGYUN 1C DEB", "group": "fengyun-1c-debris", "lat": -4.953013130883016, "lon": -93.35236137378111, "alt_km": 704.1100506612311, "timestamp": "2025-12-27T08:36:18.656807+00:00", "meta": {"OBJECT_NAME": "FENGYUN 1C DEB", "OBJECT_ID": "1999-025TY", "EPOCH": "2025-12-27T04:45:51.715872", "MEAN_MOTION": 14.48596492, "ECCENTRICITY": 0.0144343, "INCLINATION": 98.9669, "RA_OF_ASC_NODE": 87.2618, "ARG_OF_PERICENTER": 111.3983, "MEAN_ANOMALY": 317.8213, "EPHEMERIS_TYPE": 0, "CLASSIFICATION_TYPE": "U", "NORAD_CAT_ID": 30167, "ELEMENT_SET_NO": 999, "REV_AT_EPOCH": 99568, "BSTAR": 0.0004812, "MEAN_MOTION_DOT": 2.009e-05, "MEAN_MOTION_DDOT": 0}, "tle": {"line1": "1 30167U 99025TY  25361.19851523  .00002009  00000+0  48120-3 0  9991", "line2": "2 30167  98.9669  87.2618 0144343 111.3983 317.8213 14.48596492995687"}}, "geometry": {"type": "Point", "coordinates": [-93.35236137378111, -4.953013130883016]}}, {"type": "Feature", "properties": {"norad_id": 30168, "name": "FENGYUN 1C DEB", "group": "fengyun-1c-debris", "lat": 55.665037054222154, "lon": -97.04555483583759, "alt_km": 641.5775791016231, "timestamp": "2025-12-27T08:36:18.656817+00:00", "meta": {"OBJECT_NAME": "FENGYUN 1C DEB", "OBJECT_ID": "1999-025TZ", "EPOCH": "2025-12-27T03:05:12.871680", "MEAN_MOTION": 14.5309217, "ECCENTRICITY": 0.0100175, "INCLINATION": 97.3886, "RA_OF_ASC_NODE": 71.8005, "ARG_OF_PERICENTER": 109.2437, "MEAN_ANOMALY": 251.9632, "EPHEMERIS_TYPE": 0, "CLASSIFICATION_TYPE": "U", "NORAD_CAT_ID": 30168, "ELEMENT_SET_NO": 999, "REV_AT_EPOCH": 98520, "BSTAR": 0.0020235, "MEAN_MOTION_DOT": 8.907e-05, "MEAN_MOTION_DDOT": 0}, "tle": {"line1": "1 30168U 99025TZ  25361.12862120  .00008907  00000+0  20235-2 0  9999", "line2": "2 30168  97.3886  71.8005 0100175 109.2437 251.9632 14.53092170985206"}}, "geometry": {"type": "Point", "coordinates": [-97.04555483583759, 55.665037054222154]}}, {"type": "Feature", "properties": {"norad_id": 30169, "name": "FENGYUN 1C DEB", "group": "fengyun-1c-debris", "lat": -44.70578640371717, "lon": -117.46782844927718, "alt_km": 593.6210707793289, "timestamp": "2025-12-27T08:36:18.656827+00:00", "meta": {"OBJECT_NAME": "FENGYUN 1C DEB", "OBJECT_ID": "1999-025UA", "EPOCH": "2025-12-27T04:33:02.577024", "MEAN_MOTION": 14.58552886, "ECCENTRICITY": 0.021267, "INCLINATION": 98.3348, "RA_OF_ASC_NODE": 70.7059, "ARG_OF_PERICENTER": 182.3893, "MEAN_ANOMALY": 234.6545, "EPHEMERIS_TYPE": 0, "CLASSIFICATION_TYPE": "U", "NORAD_CAT_ID": 30169, "ELEMENT_SET_NO": 999, "REV_AT_EPOCH": 97934, "BSTAR": 0.0032976, "MEAN_MOTION_DOT": 0.00020999, "MEAN_MOTION_DDOT": 0}, "tle": {"line1": "1 30169U 99025UA  25361.18961316  .00020999  00000+0  32976-2 0  9993", "line2": "2 30169  98.3348  70.7059 0212670 182.3893 234.6545 14.58552886979349"}}, "geometry": {"type": "Point", "coordinates": [-117.46782844927718, -44.70578640371717]}}, {"type": "Feature", "properties": {"norad_id": 30170, "name": "FENGYUN 1C DEB", "group": "fengyun-1c-debris", "lat": 62.847416642965015, "lon": -29.761723117273974, "alt_km": 941.9041755559037, "timestamp": "2025-12-27T08:36:18.656837+00:00", "meta": {"OBJECT_NAME": "FENGYUN 1C DEB", "OBJECT_ID": "1999-025UB", "EPOCH": "2025-12-26T22:05:57.470784", "MEAN_MOTION": 14.00323461, "ECCENTRICITY": 0.0077556, "INCLINATION": 98.8498, "RA_OF_ASC_NODE": 347.4984, "ARG_OF_PERICENTER": 234.7567, "MEAN_ANOMALY": 144.1528, "EPHEMERIS_TYPE": 0, "CLASSIFICATION_TYPE": "U", "NORAD_CAT_ID": 30170, "ELEMENT_SET_NO": 999, "REV_AT_EPOCH": 96614, "BSTAR": 0.00034278, "MEAN_MOTION_DOT": 4.77e-06, "MEAN_MOTION_DDOT": 0}, "tle": {"line1": "1 30170U 99025UB  25360.92080406  .00000477  00000+0  34278-3 0  9995", "line2": "2 30170  98.8498 347.4984 0077556 234.7567 144.1528 14.00323461966147"}}, "geometry": {"type": "Point", "coordinates": [-29.761723117273974, 62.847416642965015]}}, {"type": "Feature", "properties": {"norad_id": 30171, "name": "FENGYUN 1C DEB", "group": "fengyun-1c-debris", "lat": 74.71684552858225, "lon": 70.53553170972268, "alt_km": 969.9369433766524, "timestamp": "2025-12-27T08:36:18.656847+00:00", "meta": {"OBJECT_NAME": "FENGYUN 1C DEB", "OBJECT_ID": "1999-025UC", "EPOCH": "2025-12-27T02:56:30.283008", "MEAN_MOTION": 13.9687256, "ECCENTRICITY": 0.0184394, "INCLINATION": 98.3976, "RA_OF_ASC_NODE": 217.5964, "ARG_OF_PERICENTER": 226.9655, "MEAN_ANOMALY": 131.5939, "EPHEMERIS_TYPE": 0, "CLASSIFICATION_TYPE": "U", "NORAD_CAT_ID": 30171, "ELEMENT_SET_NO": 999, "REV_AT_EPOCH": 96471, "BSTAR": 0.00025205, "MEAN_MOTION_DOT": 3.65e-06, "MEAN_MOTION_DDOT": 0}, "tle": {"line1": "1 30171U 99025UC  25361.12257272  .00000365  00000+0  25205-3 0  9992", "line2": "2 30171  98.3976 217.5964 0184394 226.9655 131.5939 13.96872560964719"}}, "geometry": {"type": "Point", "coordinates": [70.53553170972268, 74.71684552858225]}}, {"type": "Feature", "properties": {"norad_id": 30172, "name": "FENGYUN 1C DEB", "group": "fengyun-1c-debris", "lat": -37.21366333457858, "lon": 153.77562474005308, "alt_km": 829.655696419697, "timestamp": "2025-12-27T08:36:18.656857+00:00", "meta": {"OBJECT_NAME": "FENGYUN 1C DEB", "OBJECT_ID": "1999-025UD", "EPOCH": "2025-12-26T21:40:25.673088", "MEAN_MOTION": 14.12531642, "ECCENTRICITY": 0.0068927, "INCLINATION": 99.2364, "RA_OF_ASC_NODE": 340.4046, "ARG_OF_PERICENTER": 161.9291, "MEAN_ANOMALY": 260.234, "EPHEMERIS_TYPE": 0, "CLASSIFICATION_TYPE": "U", "NORAD_CAT_ID": 30172, "ELEMENT_SET_NO": 999, "REV_AT_EPOCH": 96717, "BSTAR": 0.0015269, "MEAN_MOTION_DOT": 2.841e-05, "MEAN_MOTION_DDOT": 0}, "tle": {"line1": "1 30172U 99025UD  25360.90307492  .00002841  00000+0  15269-2 0  9997", "line2": "2 30172  99.2364 340.4046 0068927 161.9291 260.2340 14.12531642967176"}}, "geometry": {"type": "Point", "coordinates": [153.77562474005308, -37.21366333457858]}}]}